INMARSAT 4-F3           
1 33278U 08039A   26160.46065382 -.00000125  00000+0  00000+0 0  9999
2 33278   4.2870  31.6048 0002793  50.7614 243.2884  1.00271547 46460
NIMIQ 4                 
1 33373U 08044A   26160.61080108 -.00000203  00000+0  00000+0 0  9998
2 33373   0.0141  40.7479 0002018  27.2196 327.8940  1.00270158 64902
GALAXY 19 (G-19)        
1 33376U 08045A   26160.67903878 -.00000122  00000+0  00000+0 0  9996
2 33376   0.0162 273.3235 0002701 165.0046 327.1890  1.00271218 64822
ASTRA 1M                
1 33436U 08057A   26160.84471339  .00000138  00000+0  00000+0 0  9993
2 33436   0.2764  82.3376 0004691  18.8160 120.5511  1.00268757 45665
EUTELSAT HOTBIRD 13C    
1 33459U 08065A   26160.54575561 -.00000266  00000+0  00000+0 0  9999
2 33459   2.9296  79.2803 0003635   1.2492 323.5594  1.00270483 47263
EXPRESS-AM44            
1 33595U 09007A   26160.90998976 -.00000072  00000+0  00000+0 0  9991
2 33595   3.4438  78.4839 0004253 355.1865 141.2085  1.00271720 52216
NSS-9                   
1 33749U 09008A   26160.66326537  .00000089  00000+0  00000+0 0  9991
2 33749   1.2413  82.7296 0002085 345.1182 252.0276  1.00271723 63446
TELSTAR 11N             
1 34111U 09009A   26160.16496047 -.00000234  00000+0  00000+0 0  9998
2 34111   0.0169  15.8389 0002631  55.2150 208.3207  1.00274115 46162
WGS F2 (USA 204)        
1 34713U 09017A   26160.70968241  .00000087  00000+0  00000+0 0  9990
2 34713   0.0176 335.2368 0000723 230.4748   5.3726  1.00262298 45545
SES-7 (PROTOSTAR 2)     
1 34941U 09027A   26160.29188163 -.00000328  00000+0  00000+0 0  9994
2 34941   0.0649  79.9266 0000322 322.8658  68.2235  1.00271615 62559
MEASAT-3A               
1 35362U 09032A   26160.72996255 -.00000093  00000+0  00000+0 0  9994
2 35362   0.0242   8.5309 0002989  67.2309 245.1311  1.00271602  7956
GOES 14                 
1 35491U 09033A   26160.61225153 -.00000243  00000+0  00000+0 0  9995
2 35491   1.6694  83.1346 0001892   5.6894 175.7469  1.00113561  6516
FM-5                    
1 35493U 09034A   26160.61002106 -.00000183  00000+0  00000+0 0  9992
2 35493   0.0193 289.3868 0000620  10.4212  91.6408  1.00271120 46564
TERRESTAR-1             
1 35496U 09035A   26160.75000000 -.00000041  00000+0  00000+0 0  9995
2 35496   5.1637  48.8137 0002690  28.0731 340.2273  1.00270974 62065
ASIASAT 5               
1 35696U 09042A   26160.36175032 -.00000290  00000+0  00000+0 0  9996
2 35696   0.0179  62.7257 0001488 358.0585  67.6933  1.00271303 61639
JCSAT-12 (JCSAT-RA)     
1 35755U 09044A   26160.79571771 -.00000311  00000+0  00000+0 0  9995
2 35755   0.0103 339.9806 0000189 166.8332 169.8486  1.00270543 61535
OPTUS D3                
1 35756U 09044B   26159.94504775 -.00000129  00000+0  00000+0 0  9998
2 35756   0.8666 269.5329 0003006 168.5081 315.6498  1.00270420 61489
NIMIQ 5                 
1 35873U 09050A   26160.54133559 -.00000240  00000+0  00000+0 0  9995
2 35873   0.0319 275.8964 0002900 158.3033 305.9050  1.00271682 61260
AMAZONAS 2              
1 35942U 09054A   26160.70011969 -.00000242  00000+0  00000+0 0  9996
2 35942   1.7952  83.1469 0003367 351.9695   3.0189  1.00271521 61105
COMSATBW-1              
1 35943U 09054B   26160.86141481  .00000042  00000+0  00000+0 0  9994
2 35943   0.0625  76.7361 0002913   7.3557 187.2534  1.00271919 61233
NSS-12                  
1 36032U 09058A   26160.70959574  .00000089  00000+0  00000+0 0  9992
2 36032   0.0705  65.5803 0004766 343.1526 161.7980  1.00271031 60847
THOR 6                  
1 36033U 09058B   26160.69814179  .00000007  00000+0  00000+0 0  9992
2 36033   0.0186 250.1501 0002232 219.2048  39.1990  1.00271456 60936
INTELSAT 14 (IS-14)     
1 36097U 09064A   26160.30808655 -.00000257  00000+0  00000+0 0  9997
2 36097   0.0138 334.2610 0002763 120.8705 228.4733  1.00270426 60523
EUTELSAT 36B            
1 36101U 09065A   26160.56579731  .00000129  00000+0  00000+0 0  9999
2 36101   0.4709  81.0160 0005998 356.2910  74.8040  1.00271095 60639
INTELSAT 15 (IS-15)     
1 36106U 09067A   26160.85775295 -.00000168  00000+0  00000+0 0  9995
2 36106   0.0172 349.7214 0002217  93.1458 209.3028  1.00270955 41154
WGS F3 (USA 211)        
1 36108U 09068A   26160.67262542  .00000082  00000+0  00000+0 0  9998
2 36108   0.3325  85.7752 0000375 287.6257 356.8147  1.00265621 46512
DIRECTV 12              
1 36131U 09075A   26160.30393988 -.00000086  00000+0  00000+0 0  9996
2 36131   0.0431 137.4498 0000297 268.2862 218.6427  1.00271118 46474
BEIDOU-2 G1             
1 36287U 10001A   26160.94000648 -.00000264  00000+0  00000+0 0  9995
2 36287   4.2754  60.4292 0002570 306.1800  10.5714  1.00273844 60097
SDO                     
1 36395U 10005A   26160.45717389 -.00000063  00000+0  00000+0 0  9999
2 36395  34.6348  86.4608 0001571  53.7612 180.1782  1.00270666 59982
INTELSAT 16 (IS-16)     
1 36397U 10006A   26160.54064226 -.00000227  00000+0  00000+0 0  9999
2 36397   0.0090 324.5904 0002134 132.6882 279.0741  1.00269634 59573
EWS-G2 (GOES 15)        
1 36411U 10008A   26160.82783397  .00000036  00000+0  00000+0 0  9993
2 36411   1.2564  82.9839 0005418  39.1001 137.7556  1.00275774 59568
ECHOSTAR 14             
1 36499U 10010A   26160.67479209  .00000017  00000+0  00000+0 0  9998
2 36499   0.0496  90.7241 0002419   5.7406 285.6120  1.00272079 46476
