OBJECT_NAME,OBJECT_ID,EPOCH,MEAN_MOTION,ECCENTRICITY,INCLINATION,RA_OF_ASC_NODE,ARG_OF_PERICENTER,MEAN_ANOMALY,EPHEMERIS_TYPE,CLASSIFICATION_TYPE,NORAD_CAT_ID,ELEMENT_SET_NO,REV_AT_EPOCH,BSTAR,MEAN_MOTION_DOT,MEAN_MOTION_DDOT
INMARSAT 4-F3,2008-039A,2026-06-09T11:03:20.490048,1.00271547,.00027931,4.2870,31.6048,50.7614,243.2884,0,U,33278,999,4646,0,-.125E-5,0
NIMIQ 4,2008-044A,2026-06-09T14:39:33.213312,1.00270158,.00020183,0.0141,40.7479,27.2196,327.8940,0,U,33373,999,6490,0,-.203E-5,0
GALAXY 19 (G-19),2008-045A,2026-06-09T16:17:48.950592,1.00271218,.00027012,0.0162,273.3235,165.0046,327.1890,0,U,33376,999,6482,0,-.122E-5,0
ASTRA 1M,2008-057A,2026-06-09T20:16:23.236896,1.00268757,.00046918,0.2764,82.3376,18.8160,120.5511,0,U,33436,999,4566,0,.138E-5,0
EUTELSAT HOTBIRD 13C,2008-065A,2026-06-09T13:05:53.284704,1.00270483,.00036351,2.9296,79.2803,1.2492,323.5594,0,U,33459,999,4726,0,-.266E-5,0
EXPRESS-AM44,2009-007A,2026-06-09T21:50:23.115264,1.00271720,.00042536,3.4438,78.4839,355.1865,141.2085,0,U,33595,999,5221,0,-.72E-6,0
NSS-9,2009-008A,2026-06-09T15:55:06.127968,1.00271723,.00020855,1.2413,82.7296,345.1182,252.0276,0,U,33749,999,6344,0,.89E-6,0
TELSTAR 11N,2009-009A,2026-06-09T03:57:32.584608,1.00274115,.00026317,0.0169,15.8389,55.2150,208.3207,0,U,34111,999,4616,0,-.234E-5,0
WGS F2 (USA 204),2009-017A,2026-06-09T17:01:56.560224,1.00262298,.00007234,0.0176,335.2368,230.4748,5.3726,0,U,34713,999,4554,0,.87E-6,0
SES-7 (PROTOSTAR 2),2009-027A,2026-06-09T07:00:18.572832,1.00271615,.00003224,0.0649,79.9266,322.8658,68.2235,0,U,34941,999,6255,0,-.328E-5,0
MEASAT-3A,2009-032A,2026-06-09T17:31:08.764320,1.00271602,.00029895,0.0242,8.5309,67.2309,245.1311,0,U,35362,999,795,0,-.93E-6,0
GOES 14,2009-033A,2026-06-09T14:41:38.532192,1.00113561,.00018926,1.6694,83.1346,5.6894,175.7469,0,U,35491,999,651,0,-.243E-5,0
FM-5,2009-034A,2026-06-09T14:38:25.819584,1.00271120,.00006204,0.0193,289.3868,10.4212,91.6408,0,U,35493,999,4656,0,-.183E-5,0
TERRESTAR-1,2009-035A,2026-06-09T18:00:00.000000,1.00270974,.00026906,5.1637,48.8137,28.0731,340.2273,0,U,35496,999,6206,0,-.41E-6,0
ASIASAT 5,2009-042A,2026-06-09T08:40:55.227648,1.00271303,.0001488,0.0179,62.7257,358.0585,67.6933,0,U,35696,999,6163,0,-.29E-5,0
JCSAT-12 (JCSAT-RA),2009-044A,2026-06-09T19:05:50.010144,1.00270543,.00001892,0.0103,339.9806,166.8332,169.8486,0,U,35755,999,6153,0,-.311E-5,0
OPTUS D3,2009-044B,2026-06-08T22:40:52.125600,1.00270420,.0003006,0.8666,269.5329,168.5081,315.6498,0,U,35756,999,6148,0,-.129E-5,0
NIMIQ 5,2009-050A,2026-06-09T12:59:31.394976,1.00271682,.00029007,0.0319,275.8964,158.3033,305.9050,0,U,35873,999,6126,0,-.24E-5,0
AMAZONAS 2,2009-054A,2026-06-09T16:48:10.341216,1.00271521,.00033677,1.7952,83.1469,351.9695,3.0189,0,U,35942,999,6110,0,-.242E-5,0
COMSATBW-1,2009-054B,2026-06-09T20:40:26.239584,1.00271919,.0002913,0.0625,76.7361,7.3557,187.2534,0,U,35943,999,6123,0,.42E-6,0
NSS-12,2009-058A,2026-06-09T17:01:49.071936,1.00271031,.0004766,0.0705,65.5803,343.1526,161.7980,0,U,36032,999,6084,0,.89E-6,0
THOR 6,2009-058B,2026-06-09T16:45:19.450656,1.00271456,.00022328,0.0186,250.1501,219.2048,39.1990,0,U,36033,999,6093,0,.7E-7,0
INTELSAT 14 (IS-14),2009-064A,2026-06-09T07:23:38.677920,1.00270426,.00027631,0.0138,334.2610,120.8705,228.4733,0,U,36097,999,6052,0,-.257E-5,0
EUTELSAT 36B,2009-065A,2026-06-09T13:34:44.887584,1.00271095,.00059984,0.4709,81.0160,356.2910,74.8040,0,U,36101,999,6063,0,.129E-5,0
INTELSAT 15 (IS-15),2009-067A,2026-06-09T20:35:09.854880,1.00270955,.0002217,0.0172,349.7214,93.1458,209.3028,0,U,36106,999,4115,0,-.168E-5,0
WGS F3 (USA 211),2009-068A,2026-06-09T16:08:34.836288,1.00265621,.00003752,0.3325,85.7752,287.6257,356.8147,0,U,36108,999,4651,0,.82E-6,0
DIRECTV 12,2009-075A,2026-06-09T07:17:40.405632,1.00271118,.00002974,0.0431,137.4498,268.2862,218.6427,0,U,36131,999,4647,0,-.86E-6,0
BEIDOU-2 G1,2010-001A,2026-06-09T22:33:36.559872,1.00273844,.00025702,4.2754,60.4292,306.1800,10.5714,0,U,36287,999,6009,0,-.264E-5,0
SDO,2010-005A,2026-06-09T10:58:19.824096,1.00270666,.00015715,34.6348,86.4608,53.7612,180.1782,0,U,36395,999,5998,0,-.63E-6,0
INTELSAT 16 (IS-16),2010-006A,2026-06-09T12:58:31.491264,1.00269634,.00021346,0.0090,324.5904,132.6882,279.0741,0,U,36397,999,5957,0,-.227E-5,0
EWS-G2 (GOES 15),2010-008A,2026-06-09T19:52:04.855008,1.00275774,.00054184,1.2564,82.9839,39.1001,137.7556,0,U,36411,999,5956,0,.36E-6,0
ECHOSTAR 14,2010-010A,2026-06-09T16:11:42.036576,1.00272079,.00024191,0.0496,90.7241,5.7406,285.6120,0,U,36499,999,4647,0,.17E-6,0
